[
    {
        "Altitude(m)": 553488.5007014013,
        "Argument of Periapsis(deg)": 0.0,
        "Eccentricity": 0.0,
        "Inclination(deg)": 53.0,
        "Latitude(deg)": 13.004206076761577,
        "Longitude(deg)": -124.93608916271448,
        "Mean Anomaly(deg)": 163.63640000000004,
        "RAAN(deg)": 165.0,
        "Satellite Name": "Starlink Shell 1 736",
        "Satellite Number": 736,
        "Semi-Major Axis(m)": 6931778.249405717,
        "Time(s)": 0
    },
    {
        "Altitude(m)": 553483.8505717468,
        "Argument of Periapsis(deg)": 0.00034857847951123687,
        "Eccentricity": 0.0,
        "Inclination(deg)": 53.0,
        "Latitude(deg)": 12.507645569534626,
        "Longitude(deg)": -124.58142244824664,
        "Mean Anomaly(deg)": 164.26323120355676,
        "RAAN(deg)": 164.9994812299225,
        "Satellite Name": "Starlink Shell 1 736",
        "Satellite Number": 736,
        "Semi-Major Axis(m)": 6931778.249405717,
        "Time(s)": 10
    },
    {
        "Altitude(m)": 553481.7823710204,
        "Argument of Periapsis(deg)": 0.0006971569590224737,
        "Eccentricity": 0.0,
        "Inclination(deg)": 53.0,
        "Latitude(deg)": 12.010491573774367,
        "Longitude(deg)": -124.2282688293419,
        "Mean Anomaly(deg)": 164.89006240711345,
        "RAAN(deg)": 164.99896245984505,
        "Satellite Name": "Starlink Shell 1 736",
        "Satellite Number": 736,
        "Semi-Major Axis(m)": 6931778.249405717,
        "Time(s)": 20
    },
    {
        "Altitude(m)": 553482.319951213,
        "Argument of Periapsis(deg)": 0.0010457354385337105,
        "Eccentricity": 0.0,
        "Inclination(deg)": 53.0,
        "Latitude(deg)": 11.512770734011337,
        "Longitude(deg)": -123.87656300282602,
        "Mean Anomaly(deg)": 165.5168936106701,
        "RAAN(deg)": 164.99844368976756,
        "Satellite Name": "Starlink Shell 1 736",
        "Satellite Number": 736,
        "Semi-Major Axis(m)": 6931778.249405717,
        "Time(s)": 30
    },
    {
        "Altitude(m)": 553485.4859702348,
        "Argument of Periapsis(deg)": 0.0013943139180449475,
        "Eccentricity": 0.0,
        "Inclination(deg)": 53.0,
        "Latitude(deg)": 11.014509384757883,
        "Longitude(deg)": -123.52623978636126,
        "Mean Anomaly(deg)": 166.14372481422686,
        "RAAN(deg)": 164.99792491969012,
        "Satellite Name": "Starlink Shell 1 736",
        "Satellite Number": 736,
        "Semi-Major Axis(m)": 6931778.249405717,
        "Time(s)": 40
    },
    {
        "Altitude(m)": 553491.301877898,
        "Argument of Periapsis(deg)": 0.0017428923975561844,
        "Eccentricity": 0.0,
        "Inclination(deg)": 53.0,
        "Latitude(deg)": 10.515733565405931,
        "Longitude(deg)": -123.17723510022226,
        "Mean Anomaly(deg)": 166.7705560177836,
        "RAAN(deg)": 164.99740614961263,
        "Satellite Name": "Starlink Shell 1 736",
        "Satellite Number": 736,
        "Semi-Major Axis(m)": 6931778.249405717,
        "Time(s)": 50
    },
    {
        "Altitude(m)": 553499.7879025289,
        "Argument of Periapsis(deg)": 0.002091470877067421,
        "Eccentricity": 0.0,
        "Inclination(deg)": 53.0,
        "Latitude(deg)": 10.01646903485058,
        "Longitude(deg)": -122.82948543627093,
        "Mean Anomaly(deg)": 167.39738722134032,
        "RAAN(deg)": 164.99688737953517,
        "Satellite Name": "Starlink Shell 1 736",
        "Satellite Number": 736,
        "Semi-Major Axis(m)": 6931778.249405717,
        "Time(s)": 60
    },
    {
        "Altitude(m)": 553510.9630381484,
        "Argument of Periapsis(deg)": 0.0024400493565786582,
        "Eccentricity": 0.0,
        "Inclination(deg)": 53.0,
        "Latitude(deg)": 9.516741285855376,
        "Longitude(deg)": -122.48292732701175,
        "Mean Anomaly(deg)": 168.02421842489704,
        "RAAN(deg)": 164.99636860945768,
        "Satellite Name": "Starlink Shell 1 736",
        "Satellite Number": 736,
        "Semi-Major Axis(m)": 6931778.249405717,
        "Time(s)": 70
    },
    {
        "Altitude(m)": 553524.8450322781,
        "Argument of Periapsis(deg)": 0.002788627836089895,
        "Eccentricity": 0.0,
        "Inclination(deg)": 53.0,
        "Latitude(deg)": 9.01657555917191,
        "Longitude(deg)": -122.13749832760399,
        "Mean Anomaly(deg)": 168.65104962845373,
        "RAAN(deg)": 164.9958498393802,
        "Satellite Name": "Starlink Shell 1 736",
        "Satellite Number": 736,
        "Semi-Major Axis(m)": 6931778.249405717,
        "Time(s)": 80
    },
    {
        "Altitude(m)": 553541.450374348,
        "Argument of Periapsis(deg)": 0.0031372063156011316,
        "Eccentricity": 0.0,
        "Inclination(deg)": 53.0,
        "Latitude(deg)": 8.51599685742329,
        "Longitude(deg)": -121.79313648509151,
        "Mean Anomaly(deg)": 169.27788083201045,
        "RAAN(deg)": 164.99533106930272,
        "Satellite Name": "Starlink Shell 1 736",
        "Satellite Number": 736,
        "Semi-Major Axis(m)": 6931778.249405717,
        "Time(s)": 90
    },
    {
        "Altitude(m)": 553560.794284747,
        "Argument of Periapsis(deg)": 0.0034857847951123688,
        "Eccentricity": 0.0,
        "Inclination(deg)": 53.0,
        "Latitude(deg)": 8.015029958765505,
        "Longitude(deg)": -121.44977980772357,
        "Mean Anomaly(deg)": 169.90471203556717,
        "RAAN(deg)": 164.9948122992253,
        "Satellite Name": "Starlink Shell 1 736",
        "Satellite Number": 736,
        "Semi-Major Axis(m)": 6931778.249405717,
        "Time(s)": 100
    },
    {
        "Altitude(m)": 553582.890704453,
        "Argument of Periapsis(deg)": 0.003834363274623606,
        "Eccentricity": 0.0,
        "Inclination(deg)": 53.0,
        "Latitude(deg)": 7.513699430340284,
        "Longitude(deg)": -121.10736724724374,
        "Mean Anomaly(deg)": 170.53154323912392,
        "RAAN(deg)": 164.99429352914777,
        "Satellite Name": "Starlink Shell 1 736",
        "Satellite Number": 736,
        "Semi-Major Axis(m)": 6931778.249405717,
        "Time(s)": 110
    },
    {
        "Altitude(m)": 553607.7522853572,
        "Argument of Periapsis(deg)": 0.004182941754134842,
        "Eccentricity": 0.0,
        "Inclination(deg)": 53.0,
        "Latitude(deg)": 7.012029641528324,
        "Longitude(deg)": -120.76583816839923,
        "Mean Anomaly(deg)": 171.15837444268058,
        "RAAN(deg)": 164.99377475907033,
        "Satellite Name": "Starlink Shell 1 736",
        "Satellite Number": 736,
        "Semi-Major Axis(m)": 6931778.249405717,
        "Time(s)": 120
    },
    {
        "Altitude(m)": 553635.3903811766,
        "Argument of Periapsis(deg)": 0.004531520233646079,
        "Eccentricity": 0.0,
        "Inclination(deg)": 53.0,
        "Latitude(deg)": 6.510044777016795,
        "Longitude(deg)": -120.42513181854498,
        "Mean Anomaly(deg)": 171.78520564623733,
        "RAAN(deg)": 164.99325598899284,
        "Satellite Name": "Starlink Shell 1 736",
        "Satellite Number": 736,
        "Semi-Major Axis(m)": 6931778.249405717,
        "Time(s)": 130
    },
    {
        "Altitude(m)": 553665.8150390369,
        "Argument of Periapsis(deg)": 0.0048800987131573164,
        "Eccentricity": 0.0,
        "Inclination(deg)": 53.0,
        "Latitude(deg)": 6.007768849694461,
        "Longitude(deg)": -120.0851883102128,
        "Mean Anomaly(deg)": 172.412036849794,
        "RAAN(deg)": 164.99273721891538,
        "Satellite Name": "Starlink Shell 1 736",
        "Satellite Number": 736,
        "Semi-Major Axis(m)": 6931778.249405717,
        "Time(s)": 140
    },
    {
        "Altitude(m)": 553699.0349916965,
        "Argument of Periapsis(deg)": 0.005228677192668553,
        "Eccentricity": 0.0,
        "Inclination(deg)": 53.0,
        "Latitude(deg)": 5.505225713382805,
        "Longitude(deg)": -119.74594809089724,
        "Mean Anomaly(deg)": 173.03886805335074,
        "RAAN(deg)": 164.9922184488379,
        "Satellite Name": "Starlink Shell 1 736",
        "Satellite Number": 736,
        "Semi-Major Axis(m)": 6931778.249405717,
        "Time(s)": 150
    },
    {
        "Altitude(m)": 553735.0576504137,
        "Argument of Periapsis(deg)": 0.00557725567217979,
        "Eccentricity": 0.0,
        "Inclination(deg)": 53.0,
        "Latitude(deg)": 5.002439075417897,
        "Longitude(deg)": -119.4073514129299,
        "Mean Anomaly(deg)": 173.66569925690752,
        "RAAN(deg)": 164.99169967876045,
        "Satellite Name": "Starlink Shell 1 736",
        "Satellite Number": 736,
        "Semi-Major Axis(m)": 6931778.249405717,
        "Time(s)": 160
    },
    {
        "Altitude(m)": 553773.8890984969,
        "Argument of Periapsis(deg)": 0.0059258341516910265,
        "Eccentricity": 0.0,
        "Inclination(deg)": 53.0,
        "Latitude(deg)": 4.499432509094119,
        "Longitude(deg)": -119.06933931630839,
        "Mean Anomaly(deg)": 174.29253046046415,
        "RAAN(deg)": 164.99118090868294,
        "Satellite Name": "Starlink Shell 1 736",
        "Satellite Number": 736,
        "Semi-Major Axis(m)": 6931778.249405717,
        "Time(s)": 170
    },
    {
        "Altitude(m)": 553815.5340854842,
        "Argument of Periapsis(deg)": 0.006274412631202263,
        "Eccentricity": 0.0,
        "Inclination(deg)": 53.0,
        "Latitude(deg)": 3.9962294659803885,
        "Longitude(deg)": -118.73185309873206,
        "Mean Anomaly(deg)": 174.91936166402093,
        "RAAN(deg)": 164.9906621386055,
        "Satellite Name": "Starlink Shell 1 736",
        "Satellite Number": 736,
        "Semi-Major Axis(m)": 6931778.249405717,
        "Time(s)": 180
    }
]